[{"OBJECT_NAME":"ONEWEB-0034","OBJECT_ID":"2020-020AG","EPOCH":"2026-01-21T11:35:40.707456","MEAN_MOTION":13.11417694,"ECCENTRICITY":0.0001787,"INCLINATION":87.8824,"RA_OF_ASC_NODE":50.2562,"ARG_OF_PERICENTER":93.8672,"MEAN_ANOMALY":266.2661,"EPHEMERIS_TYPE":0,"CLASSIFICATION_TYPE":"U","NORAD_CAT_ID":45454,"ELEMENT_SET_NO":999,"REV_AT_EPOCH":28336,"BSTAR":-0.001441,"MEAN_MOTION_DOT":-4.98e-6,"MEAN_MOTION_DDOT":0},{"OBJECT_NAME":"ONEWEB-0060","OBJECT_ID":"2020-020AH","EPOCH":"2026-01-21T07:14:26.723616","MEAN_MOTION":13.11414799,"ECCENTRICITY":0.0001733,"INCLINATION":87.8817,"RA_OF_ASC_NODE":50.3068,"ARG_OF_PERICENTER":60.2099,"MEAN_ANOMALY":299.9201,"EPHEMERIS_TYPE":0,"CLASSIFICATION_TYPE":"U","NORAD_CAT_ID":45455,"ELEMENT_SET_NO":999,"REV_AT_EPOCH":28329,"BSTAR":0.0012559,"MEAN_MOTION_DOT":4.58e-6,"MEAN_MOTION_DDOT":0},{"OBJECT_NAME":"ONEWEB-0086","OBJECT_ID":"2020-020AJ","EPOCH":"2026-01-21T12:13:31.092960","MEAN_MOTION":13.11419696,"ECCENTRICITY":0.0001162,"INCLINATION":87.8825,"RA_OF_ASC_NODE":50.2482,"ARG_OF_PERICENTER":77.7289,"MEAN_ANOMALY":282.3969,"EPHEMERIS_TYPE":0,"CLASSIFICATION_TYPE":"U","NORAD_CAT_ID":45456,"ELEMENT_SET_NO":999,"REV_AT_EPOCH":28338,"BSTAR":0.00056064,"MEAN_MOTION_DOT":2.11e-6,"MEAN_MOTION_DDOT":0},{"OBJECT_NAME":"ONEWEB-0088","OBJECT_ID":"2020-020AK","EPOCH":"2026-01-21T11:41:45.521952","MEAN_MOTION":13.11415776,"ECCENTRICITY":0.0002087,"INCLINATION":87.8837,"RA_OF_ASC_NODE":50.2124,"ARG_OF_PERICENTER":91.386,"MEAN_ANOMALY":268.7507,"EPHEMERIS_TYPE":0,"CLASSIFICATION_TYPE":"U","NORAD_CAT_ID":45457,"ELEMENT_SET_NO":999,"REV_AT_EPOCH":28331,"BSTAR":-0.0013542,"MEAN_MOTION_DOT":-4.67e-6,"MEAN_MOTION_DDOT":0},{"OBJECT_NAME":"ONEWEB-0102","OBJECT_ID":"2020-100A","EPOCH":"2026-01-21T10:53:16.350144","MEAN_MOTION":13.1244246,"ECCENTRICITY":0.0001554,"INCLINATION":87.8926,"RA_OF_ASC_NODE":19.8155,"ARG_OF_PERICENTER":84.6521,"MEAN_ANOMALY":275.4785,"EPHEMERIS_TYPE":0,"CLASSIFICATION_TYPE":"U","NORAD_CAT_ID":47258,"ELEMENT_SET_NO":999,"REV_AT_EPOCH":24548,"BSTAR":0.00072776,"MEAN_MOTION_DOT":2.75e-6,"MEAN_MOTION_DDOT":0},{"OBJECT_NAME":"ONEWEB-0109","OBJECT_ID":"2020-100B","EPOCH":"2026-01-21T11:05:27.200832","MEAN_MOTION":13.12443084,"ECCENTRICITY":0.0001688,"INCLINATION":87.8932,"RA_OF_ASC_NODE":19.7849,"ARG_OF_PERICENTER":91.7287,"MEAN_ANOMALY":268.4035,"EPHEMERIS_TYPE":0,"CLASSIFICATION_TYPE":"U","NORAD_CAT_ID":47259,"ELEMENT_SET_NO":999,"REV_AT_EPOCH":24531,"BSTAR":-0.00016658,"MEAN_MOTION_DOT":-4.7e-7,"MEAN_MOTION_DDOT":0},{"OBJECT_NAME":"ONEWEB-0110","OBJECT_ID":"2020-100C","EPOCH":"2026-01-21T11:44:29.407200","MEAN_MOTION":13.12445381,"ECCENTRICITY":0.0001567,"INCLINATION":87.8934,"RA_OF_ASC_NODE":19.7638,"ARG_OF_PERICENTER":81.487,"MEAN_ANOMALY":278.6436,"EPHEMERIS_TYPE":0,"CLASSIFICATION_TYPE":"U","NORAD_CAT_ID":47260,"ELEMENT_SET_NO":999,"REV_AT_EPOCH":24548,"BSTAR":-0.00062735,"MEAN_MOTION_DOT":-2.13e-6,"MEAN_MOTION_DDOT":0},{"OBJECT_NAME":"ONEWEB-0111","OBJECT_ID":"2020-100D","EPOCH":"2026-01-21T12:28:23.579904","MEAN_MOTION":13.12444759,"ECCENTRICITY":0.0001801,"INCLINATION":87.8934,"RA_OF_ASC_NODE":19.7763,"ARG_OF_PERICENTER":83.5491,"MEAN_ANOMALY":276.5842,"EPHEMERIS_TYPE":0,"CLASSIFICATION_TYPE":"U","NORAD_CAT_ID":47261,"ELEMENT_SET_NO":999,"REV_AT_EPOCH":24532,"BSTAR":0.0011566,"MEAN_MOTION_DOT":4.29e-6,"MEAN_MOTION_DDOT":0},{"OBJECT_NAME":"ONEWEB-0114","OBJECT_ID":"2020-100E","EPOCH":"2026-01-21T11:22:31.528992","MEAN_MOTION":13.12444214,"ECCENTRICITY":0.0001836,"INCLINATION":87.8937,"RA_OF_ASC_NODE":19.7806,"ARG_OF_PERICENTER":99.7424,"MEAN_ANOMALY":260.3912,"EPHEMERIS_TYPE":0,"CLASSIFICATION_TYPE":"U","NORAD_CAT_ID":47262,"ELEMENT_SET_NO":999,"REV_AT_EPOCH":24527,"BSTAR":-0.0010639,"MEAN_MOTION_DOT":-3.7e-6,"MEAN_MOTION_DDOT":0},{"OBJECT_NAME":"ONEWEB-0117","OBJECT_ID":"2020-100F","EPOCH":"2026-01-21T11:10:20.647200","MEAN_MOTION":13.1244323,"ECCENTRICITY":0.000174,"INCLINATION":87.8932,"RA_OF_ASC_NODE":19.7782,"ARG_OF_PERICENTER":87.4873,"MEAN_ANOMALY":272.6455,"EPHEMERIS_TYPE":0,"CLASSIFICATION_TYPE":"U","NORAD_CAT_ID":47263,"ELEMENT_SET_NO":999,"REV_AT_EPOCH":24528,"BSTAR":-0.00037618,"MEAN_MOTION_DOT":-1.23e-6,"MEAN_MOTION_DDOT":0},{"OBJECT_NAME":"ONEWEB-0118","OBJECT_ID":"2020-100G","EPOCH":"2026-01-21T10:09:22.389120","MEAN_MOTION":13.12444723,"ECCENTRICITY":0.0002053,"INCLINATION":87.8936,"RA_OF_ASC_NODE":19.7873,"ARG_OF_PERICENTER":95.4903,"MEAN_ANOMALY":264.6459,"EPHEMERIS_TYPE":0,"CLASSIFICATION_TYPE":"U","NORAD_CAT_ID":47264,"ELEMENT_SET_NO":999,"REV_AT_EPOCH":24547,"BSTAR":0.00026104,"MEAN_MOTION_DOT":1.07e-6,"MEAN_MOTION_DDOT":0},{"OBJECT_NAME":"ONEWEB-0119","OBJECT_ID":"2020-100H","EPOCH":"2026-01-21T10:45:57.223872","MEAN_MOTION":13.12444065,"ECCENTRICITY":0.0001772,"INCLINATION":87.8926,"RA_OF_ASC_NODE":19.8126,"ARG_OF_PERICENTER":88.7583,"MEAN_ANOMALY":271.3748,"EPHEMERIS_TYPE":0,"CLASSIFICATION_TYPE":"U","NORAD_CAT_ID":47265,"ELEMENT_SET_NO":999,"REV_AT_EPOCH":24545,"BSTAR":0.0011341,"MEAN_MOTION_DOT":4.21e-6,"MEAN_MOTION_DDOT":0},{"OBJECT_NAME":"ONEWEB-0120","OBJECT_ID":"2020-100J","EPOCH":"2026-01-21T11:20:17.991744","MEAN_MOTION":13.12442502,"ECCENTRICITY":0.000175,"INCLINATION":87.8925,"RA_OF_ASC_NODE":19.8089,"ARG_OF_PERICENTER":91.4468,"MEAN_ANOMALY":268.6861,"EPHEMERIS_TYPE":0,"CLASSIFICATION_TYPE":"U","NORAD_CAT_ID":47266,"ELEMENT_SET_NO":999,"REV_AT_EPOCH":24548,"BSTAR":-0.0011165,"MEAN_MOTION_DOT":-3.89e-6,"MEAN_MOTION_DDOT":0},{"OBJECT_NAME":"ONEWEB-0121","OBJECT_ID":"2020-100K","EPOCH":"2026-01-21T11:03:01.395648","MEAN_MOTION":13.1244194,"ECCENTRICITY":0.0001674,"INCLINATION":87.8934,"RA_OF_ASC_NODE":19.7829,"ARG_OF_PERICENTER":81.916,"MEAN_ANOMALY":278.2159,"EPHEMERIS_TYPE":0,"CLASSIFICATION_TYPE":"U","NORAD_CAT_ID":47267,"ELEMENT_SET_NO":999,"REV_AT_EPOCH":24539,"BSTAR":5.7737e-5,"MEAN_MOTION_DOT":3.3e-7,"MEAN_MOTION_DDOT":0},{"OBJECT_NAME":"ONEWEB-0122","OBJECT_ID":"2020-100L","EPOCH":"2026-01-21T10:55:29.538336","MEAN_MOTION":13.12441371,"ECCENTRICITY":0.0001619,"INCLINATION":87.8932,"RA_OF_ASC_NODE":19.7865,"ARG_OF_PERICENTER":89.37,"MEAN_ANOMALY":270.7614,"EPHEMERIS_TYPE":0,"CLASSIFICATION_TYPE":"U","NORAD_CAT_ID":47268,"ELEMENT_SET_NO":999,"REV_AT_EPOCH":24530,"BSTAR":0.00069999,"MEAN_MOTION_DOT":2.65e-6,"MEAN_MOTION_DDOT":0},{"OBJECT_NAME":"ONEWEB-0123","OBJECT_ID":"2020-100M","EPOCH":"2026-01-21T10:48:23.003136","MEAN_MOTION":13.12441319,"ECCENTRICITY":0.0001889,"INCLINATION":87.8925,"RA_OF_ASC_NODE":19.8108,"ARG_OF_PERICENTER":88.9327,"MEAN_ANOMALY":271.2017,"EPHEMERIS_TYPE":0,"CLASSIFICATION_TYPE":"U","NORAD_CAT_ID":47269,"ELEMENT_SET_NO":999,"REV_AT_EPOCH":24544,"BSTAR":0.0010447,"MEAN_MOTION_DOT":3.89e-6,"MEAN_MOTION_DDOT":0},{"OBJECT_NAME":"ONEWEB-0124","OBJECT_ID":"2020-100N","EPOCH":"2026-01-21T12:23:30.923232","MEAN_MOTION":13.12445301,"ECCENTRICITY":0.0001829,"INCLINATION":87.8925,"RA_OF_ASC_NODE":19.8023,"ARG_OF_PERICENTER":83.0069,"MEAN_ANOMALY":277.1267,"EPHEMERIS_TYPE":0,"CLASSIFICATION_TYPE":"U","NORAD_CAT_ID":47270,"ELEMENT_SET_NO":999,"REV_AT_EPOCH":24533,"BSTAR":0.0013239,"MEAN_MOTION_DOT":4.89e-6,"MEAN_MOTION_DDOT":0}]
