ONEWEB-0034             
1 45454U 20020AG  26021.48311004 -.00000498  00000+0 -14410-2 0  9992
2 45454  87.8824  50.2562 0001787  93.8672 266.2661 13.11417694283367
ONEWEB-0060             
1 45455U 20020AH  26021.30169819  .00000458  00000+0  12559-2 0  9995
2 45455  87.8817  50.3068 0001733  60.2099 299.9201 13.11414799283292
ONEWEB-0086             
1 45456U 20020AJ  26021.50938765  .00000211  00000+0  56064-3 0  9999
2 45456  87.8825  50.2482 0001162  77.7289 282.3969 13.11419696283389
ONEWEB-0088             
1 45457U 20020AK  26021.48733243 -.00000467  00000+0 -13542-2 0  9999
2 45457  87.8837  50.2124 0002087  91.3860 268.7507 13.11415776283314
ONEWEB-0102             
1 47258U 20100A   26021.45366146  .00000275  00000+0  72776-3 0  9990
2 47258  87.8926  19.8155 0001554  84.6521 275.4785 13.12442460245486
ONEWEB-0109             
1 47259U 20100B   26021.46212038 -.00000047  00000+0 -16658-3 0  9998
2 47259  87.8932  19.7849 0001688  91.7287 268.4035 13.12443084245314
ONEWEB-0110             
1 47260U 20100C   26021.48922925 -.00000213  00000+0 -62735-3 0  9997
2 47260  87.8934  19.7638 0001567  81.4870 278.6436 13.12445381245482
ONEWEB-0111             
1 47261U 20100D   26021.51971736  .00000429  00000+0  11566-2 0  9998
2 47261  87.8934  19.7763 0001801  83.5491 276.5842 13.12444759245324
ONEWEB-0114             
1 47262U 20100E   26021.47397603 -.00000370  00000+0 -10639-2 0  9996
2 47262  87.8937  19.7806 0001836  99.7424 260.3912 13.12444214245278
ONEWEB-0117             
1 47263U 20100F   26021.46551675 -.00000123  00000+0 -37618-3 0  9990
2 47263  87.8932  19.7782 0001740  87.4873 272.6455 13.12443230245289
ONEWEB-0118             
1 47264U 20100G   26021.42317580  .00000107  00000+0  26104-3 0  9990
2 47264  87.8936  19.7873 0002053  95.4903 264.6459 13.12444723245470
ONEWEB-0119             
1 47265U 20100H   26021.44857898  .00000421  00000+0  11341-2 0  9999
2 47265  87.8926  19.8126 0001772  88.7583 271.3748 13.12444065245451
ONEWEB-0120             
1 47266U 20100J   26021.47243046 -.00000389  00000+0 -11165-2 0  9996
2 47266  87.8925  19.8089 0001750  91.4468 268.6861 13.12442502245480
ONEWEB-0121             
1 47267U 20100K   26021.46043282  .00000033  00000+0  57737-4 0  9997
2 47267  87.8934  19.7829 0001674  81.9160 278.2159 13.12441940245392
ONEWEB-0122             
1 47268U 20100L   26021.45520299  .00000265  00000+0  69999-3 0  9994
2 47268  87.8932  19.7865 0001619  89.3700 270.7614 13.12441371245304
ONEWEB-0123             
1 47269U 20100M   26021.45026624  .00000389  00000+0  10447-2 0  9998
2 47269  87.8925  19.8108 0001889  88.9327 271.2017 13.12441319245447
ONEWEB-0124             
1 47270U 20100N   26021.51633013  .00000489  00000+0  13239-2 0  9996
2 47270  87.8925  19.8023 0001829  83.0069 277.1267 13.12445301245333
